#dP2021 11  1  0  0  0.00000000      97 __u+U IGS14 FIT  IAC
## 2182  86400.00000000   900.00000000 59519 0.0000000000000
+  123   C01C02C03C04C05C06C07C08C09C10C11C12C13C14C16C19C20
+        C21C22C23C24C25C26C27C28C29C30C32C33C34C35C36C37C38
+        C39C40C41C42C43C44C45C46C59C60E01E02E03E04E05E07E08
+        E09E11E12E13E14E15E18E19E21E24E25E26E27E31E33E36G01
+        G02G03G04G05G06G07G08G09G10G12G13G14G15G16G17G18G19
+        G20G21G22G23G24G25G26G27G28G29G30G31G32J01J02J03J07
+        R01R02R03R04R05R07R08R09R11R12R13R14R15R16R17R18R19
+        R20R21R22R24  0  0  0  0  0  0  0  0  0  0  0  0  0
++        13 13  0 13 13  9  9  9  8  8  8  8  9  9  9  7  7
++         7  7  7  7  7  7  7  8  7  6  7  7  7  7  7  7  7
++         7  7  7  7  7  7  7  7  0 13  5  4  4  4  4  4  4
++         4  4  4  4  4  4  5  4  4  4  4  4  4  4  4  4  3
++         3  3  3  3  3  3  3  3  3  3  3  3  3  3  4  3  4
++         3  4  3  4  4  3  3  3  4  3  3  3  3  8  8  8 13
++         7  6  6  6  6  5  5  5  7  6  7  6  6  7  5  5  7
++         7  6  7  5  0  0  0  0  0  0  0  0  0  0  0  0  0
%c M  cc GPS ccc cccc cccc cccc cccc ccccc ccccc ccccc ccccc
%c cc cc ccc ccc cccc cccc cccc cccc ccccc ccccc ccccc ccccc
%f  1.2500000  1.025000000  0.00000000000  0.000000000000000
%f  0.0000000  0.000000000  0.00000000000  0.000000000000000
%i    0    0    0    0      0      0      0      0         0
%i    0    0    0    0      0      0      0      0         0
/* INFORMATION & ANALYSIS CENTER (IAC)            FINAL DATA
/* S/V CLOCKS ARE ALIGNED TO GNSS TIME                      
/* G:C1WC2W R:C1PC2P E:C1XC5X C:C2IC6I J:C1CC2S             
/* PCV:IGS14_2163 OL/AL:FES2004  NONE     YN ORB:CoN CLK:CoN
*  2021 11 01  0  0  0.00000000
PC01 -34311.825537  24456.168373    176.932175   -494.627904
PC02   4365.850738  41957.437948    662.741434    200.311597
PC03 -14783.787167  39453.930363   1434.527558 999999.999999
PC04 -39588.875083  14409.135476    197.537083   -223.320061
PC05  21880.513807  36042.833980    638.143065    286.991499
PC06 -18220.963829  33729.240520 -17778.238263    419.496204
PC07  -4683.583786  37069.313683 -19411.212738   -279.134544
PC08  -5698.360780  20307.161595  36513.068330   -811.499258
PC09 -12278.630324  32408.030123 -24012.683644   -229.934026
PC10   2201.538522  39778.465891 -12823.744366      9.954326
PC11  22514.300426  -5043.835475  15799.844199    663.899386
PC12  11089.982890  10703.560618  23305.039385    730.486969
PC13   1465.746720  23337.688152  35225.328966    460.563260
PC14  16428.620423   3566.283661 -22252.554299    556.976015
PC16 -21852.482839  33357.911037 -13908.232924   -740.583637
PC19 -14388.149712   7759.095354  22630.123585    941.243890
PC20 -15943.784627 -12491.167435  19211.257289   -790.958480
PC21   7975.995088  26421.652266  -4061.668425   -933.533846
PC22  -4467.746407  24255.280508  13026.573471   -963.282497
PC23   8243.216498 -14230.752086  22553.950523   -969.458715
PC24  25361.531407  11278.601559  -3051.097518   -967.506753
PC25  23586.105528  -3275.347418  14566.423862   -831.537087
PC26  13383.946850  17362.368199 -17296.531457    828.203293
PC27  -2611.437885 -17362.493373 -21704.114561    622.229681
PC28  14879.872337 -21419.251096  -9937.214007     -8.193482
PC29 -23056.991112  13735.892501  -7643.577264    468.153319
PC30 -18221.980613  -3056.283082 -20920.570741    485.046950
PC32  -8149.762017 -26390.876874   4005.310808   -966.443069
PC33  14394.004994  -7763.568010 -22616.949799   -970.543136
PC34  18747.908893   2333.559970  20526.151365   -547.121059
PC35 -14451.885743  21908.269185   9520.324969    -20.182928
PC36 -23867.438955   2397.668623 -14225.385137   -792.086889
PC37 -11902.086934 -17759.708867  17941.517182   -883.027927
PC38 -15651.391453  19346.672973  34015.937175    186.253966
PC39 -23956.306501  33798.909770  -8294.123470     33.847152
PC40  -8440.952710  33704.809256 -23772.573120    213.611894
PC41   4627.048605 -24078.512016 -13277.749297   -918.442505
PC42  15823.153823  13366.752978 -18660.772083   -950.556941
PC43  23200.516567 -13168.287090   8157.152024   -963.680675
PC44   3045.208071  17495.966246  21526.224749    450.878625
PC45  -7936.534142  14223.214313 -22650.675221    588.846559
PC46 -25760.851335 -10504.133093   1884.216000     13.648914
PC59 -32284.585919  27106.579024   -314.477808 999999.999999
PC60   7276.560287  41512.028720   1088.587069     -0.514139
PE01  21968.532147  19230.066768   4911.318078   -507.471959
PE02 -21998.777821 -19136.722098  -5036.204482    257.264829
PE03 -13041.501122 -13056.623880  23136.155859   -491.149770
PE04  18570.518257  -8534.997983 -21414.529319   -889.882164
PE05    240.969221 -27354.733145  11302.544834   -237.435658
PE07 -13216.281403  25548.831260   6961.443365   -602.111587
PE08 -18408.956066   9073.767692  21318.370654   5912.441729
PE09  12972.830867 -25729.939833  -6808.632126   5479.058779
PE11  18784.055148 -15521.194046 -16809.170987   5166.149990
PE12  29028.183454  -5541.768126   1631.076789   4932.572474
PE13 -19233.671995  15368.060357  16434.978735    423.210210
PE14  19314.568205 -10632.192597  13797.733257  -1624.500187
PE15 -29011.638747   5606.935366  -1679.943704    783.543219
PE18 -21141.253709   -648.666838 -22319.597400  -1784.975181
PE19  11574.264277  15432.164658 -22455.558098    416.274237
PE21  10728.974168  24487.268926 -12705.936760   -696.920011
PE24   8381.526860 -15097.119753  24033.918642  -1201.698905
PE25 -10510.643648 -24469.235950  12926.260757   -551.993760
PE26   2993.158424  15976.282280  24743.277748   1164.443602
PE27  -7298.334734  15942.694307 -23839.225802   -154.813394
PE31  20908.809825   1912.194045  20881.784890   -487.489561
PE33  21662.993094   7436.065849  18759.335478   -463.078665
PE36  -1797.973098 -16050.084318 -24800.883328   -283.833698
PG01 -10017.421568 -13406.122888 -20981.435104    523.452862
PG02 -13962.380763  14517.791730  18016.762877   -640.048255
PG03 -12246.454873 -23328.592415  -3877.257847     -3.137833
PG04  -3595.935882 -19394.561701  17754.067261   -202.788911
PG05   1396.499619  21057.948230  15864.467295    -59.547271
PG06 -24950.317317   6062.537695   6972.480647    107.230906
PG07 -23402.337863  -6904.465921  11442.905598    271.342786
PG08   4758.953364 -24382.905766  -8940.527004    -42.304156
PG09 -12648.122094  -8933.108263  21504.534319   -361.899261
PG10  18146.843021   3799.184607 -19006.022867   -236.120119
PG12   9540.834454  24343.295963  -5314.100464   -119.730073
PG13 -12662.535883  23003.482066  -3548.654138    207.867846
PG14 -18139.523547  -4059.251516 -18992.516329    -29.849794
PG15  -1211.034951  24720.121945  -9568.539693   -109.822630
PG16   3677.109407 -18886.152717  17850.848634   -416.482599
PG17 -17552.306823   5169.911438 -18821.583163    527.248482
PG18  23967.908926   5867.797089   9948.618256    302.364329
PG19 -19010.977968  12670.730829 -13666.184432     73.281916
PG20  -7592.442970  14438.390284  20975.190412    518.355652
PG21   -904.685790 -14925.748218 -21247.398758    149.603002
PG22  -7996.475289 -22717.193719 -11255.735873   -475.697389
PG23  19472.732770  14213.875246 -11260.530749     38.319839
PG24   5667.098836  15149.633388 -21378.101389    261.691893
PG25  16978.062892  20125.931825   4211.669371    233.438329
PG26  13440.575514  -8086.507277  21380.606363    150.740397
PG27  12107.349235 -23395.431279    571.207807   -213.500292
PG28 -14822.961966   3123.695165 -21253.640909    471.712322
PG29   8859.672940  12963.813156  21368.076984   -434.244291
PG30 -26675.593761    414.575081    854.243046   -487.434541
PG31  24306.353636  -7037.193869   8713.998774   -147.850968
PG32  17923.271600  -9315.040408 -17038.269403    -16.520327
PJ01 -28646.906823  24875.217761  23297.445601    152.372130
PJ02 -21336.107587  19535.669852 -26193.374886     -4.176465
PJ03 -29353.053141  30284.368394   6670.457945     -5.103285
PJ07 -25358.919777  33682.916621    -28.460313     -0.201461
PR01  -2420.398312  24570.040619   6390.087376     87.494052
PR02   6310.927738  20745.837261 -13454.592357    498.561136
PR03  10802.677978   4298.966642 -22675.215168     45.669232
PR04   8940.703493 -14297.933037 -19114.554667    112.059746
PR05   2330.085967 -24906.057479  -4917.076824     81.664157
PR07 -10871.718399  -3422.378353  22845.098532    -40.272493
PR08  -9022.210056  14385.123976  19093.288391    -61.765534
PR09 -17990.370007 -15325.651424   9710.600309     21.166203
PR11 -14981.378745   2795.527189 -20444.750548     50.630140
PR12   2357.425202  13197.594886 -21675.355561    274.700044
PR13  17382.558231  15354.800262 -10631.648603    -62.905404
PR14  22770.114022   8448.844144   7791.705497     70.528719
PR15  14541.917608  -3170.987348  20739.326238    100.495699
PR16  -3714.816026 -13648.400750  21176.163926    -24.211737
PR17  20072.057380  -3528.237892  15384.199558    470.999270
PR18  22046.768859 -12776.897104   -463.503332     95.662729
PR19  13662.025992 -15062.113277 -15405.458105   -165.267994
PR20  -5851.639349  -8574.448203 -23290.158642    -58.531561
PR21 -20615.179680   4352.132525 -14348.484235   -251.088770
PR22 -21920.475101  13050.524103   1471.914315   -142.375359
PR24   6929.232359   8483.663974  23057.008402     65.077528
EOF
